      2.10          N: GNSS NAV DATA                        RINEX VERSION / TYPE
fic2rin                                 08/17/2019 00:19:15 PGM / RUN BY / DATE
                                                            END OF HEADER
 2 19  8 16  2  0  0.0-2.838061191142e-04-8.412825991400e-12 0.000000000000e+00
    9.400000000000e+01-2.153125000000e+01 4.998422490074e-09 1.151630264332e+00
   -1.359730958939e-06 1.898168970365e-02 1.465901732445e-06 5.153763198853e+03
    4.392000000000e+05-3.799796104431e-07 1.854318617825e+00-2.291053533554e-07
    9.554299762364e-01 3.492500000000e+02-1.722959755390e+00-8.846439918303e-09
   -4.821629411647e-11 1.000000000000e+00 2.066000000000e+03 0.000000000000e+00
    3.400000000000e+00 0.000000000000e+00-2.048909664154e-08 9.400000000000e+01
    4.320000000000e+05 4.000000000000e+00
 1 19  8 16  2  0  0.0-9.799981489778e-05-1.148237060988e-11 0.000000000000e+00
    5.800000000000e+01-2.740625000000e+01 4.386611291396e-09 8.897817117569e-01
   -1.521781086922e-06 9.091484826058e-03 1.905485987663e-06 5.153647739410e+03
    4.392000000000e+05-7.450580596924e-08 1.924746120099e+00 6.146728992462e-08
    9.763617284936e-01 3.514062500000e+02 7.539784676239e-01-8.372134447290e-09
   -1.382200431339e-10 1.000000000000e+00 2.066000000000e+03 0.000000000000e+00
    2.400000000000e+00 0.000000000000e+00 5.587935447693e-09 5.800000000000e+01
    4.320000000000e+05 4.000000000000e+00
 3 19  8 16  2  0  0.0-1.940876245499e-06-2.955857780762e-12 0.000000000000e+00
    7.800000000000e+01-9.146875000000e+01 4.288392914492e-09-1.652382779461e-01
   -4.697591066360e-06 2.433722605929e-03 9.663403034210e-06 5.153737892151e+03
    4.392000000000e+05 1.303851604462e-08 2.966816928039e+00 6.705522537231e-08
    9.639573886259e-01 1.996875000000e+02 6.940565882313e-01-7.905686446430e-09
   -3.821587755898e-11 1.000000000000e+00 2.066000000000e+03 0.000000000000e+00
    2.400000000000e+00 0.000000000000e+00 1.862645149231e-09 7.800000000000e+01
    4.320000000000e+05 4.000000000000e+00
 7 19  8 16  2  0  0.0-8.604768663645e-05-7.844391802792e-12 0.000000000000e+00
    6.100000000000e+01-1.250000000000e+01 5.259504793772e-09 2.677732464477e-01
   -5.532056093216e-07 1.312066649552e-02 4.347413778305e-06 5.153728891373e+03
    4.392000000000e+05-1.490116119385e-08-1.208891299084e+00 1.210719347000e-07
    9.544847014790e-01 2.898750000000e+02-2.438173478889e+00-8.613573075607e-09
   -3.371569010811e-10 1.000000000000e+00 2.066000000000e+03 0.000000000000e+00
    2.400000000000e+00 0.000000000000e+00-1.117587089539e-08 6.100000000000e+01
    4.320000000000e+05 4.000000000000e+00
10 19  8 16  2  0  0.0-1.585809513927e-05-1.421085471520e-11 0.000000000000e+00
    1.050000000000e+02-1.077812500000e+02 4.205532320159e-09-1.112911678199e+00
   -5.589798092842e-06 4.741390468553e-03 9.836629033089e-06 5.153672555923e+03
    4.392000000000e+05 1.024454832077e-07 2.963625259185e+00-4.656612873077e-08
    9.639597453869e-01 1.889375000000e+02-2.721807324737e+00-7.869970673011e-09
   -3.000124967247e-11 1.000000000000e+00 2.066000000000e+03 0.000000000000e+00
    2.400000000000e+00 0.000000000000e+00 1.862645149231e-09 1.050000000000e+02
    4.320000000000e+05 4.000000000000e+00
 9 19  8 16  2  0  0.0-7.537193596363e-06-8.981260180008e-12 0.000000000000e+00
    1.020000000000e+02 3.265625000000e+01 4.888775065676e-09-2.795087792294e+00
    1.721084117889e-06 1.282488345169e-03 8.998438715935e-06 5.153617650986e+03
    4.392000000000e+05 1.490116119385e-08-2.284904944422e+00 3.539025783539e-08
    9.525575248844e-01 2.027500000000e+02 1.704392227966e+00-8.093908572352e-09
    5.921675232971e-10 1.000000000000e+00 2.066000000000e+03 0.000000000000e+00
    2.400000000000e+00 0.000000000000e+00 1.396983861923e-09 1.020000000000e+02
    4.320000000000e+05 4.000000000000e+00
 8 19  8 16  2  0  0.0-2.807471901178e-06-1.477928890381e-12 0.000000000000e+00
    5.700000000000e+01 1.123125000000e+02 4.103742365913e-09-3.084976313669e+00
    5.841255187988e-06 4.415878676809e-03 7.243826985359e-06 5.153787134171e+03
    4.392000000000e+05-3.725290298462e-08 8.569101268435e-01 2.980232238770e-08
    9.703179282193e-01 2.455937500000e+02-2.039867456439e-01-7.910329496975e-09
    2.753686130652e-10 1.000000000000e+00 2.066000000000e+03 0.000000000000e+00
    2.400000000000e+00 0.000000000000e+00 5.122274160385e-09 5.700000000000e+01
    4.320000000000e+05 4.000000000000e+00
23 19  8 16  2  0  0.0-1.719980500638e-04 1.932676241267e-12 0.000000000000e+00
    2.600000000000e+01 2.503125000000e+01 5.085926134952e-09 1.713343234137e+00
    1.287087798119e-06 1.325055235066e-02 9.326264262199e-06 5.153779104233e+03
    4.392000000000e+05-3.762543201447e-07-2.290799803544e+00-1.024454832077e-07
    9.433707007077e-01 1.954375000000e+02-2.234140339724e+00-8.263915653829e-09
    5.721666901821e-10 1.000000000000e+00 2.066000000000e+03 0.000000000000e+00
    2.400000000000e+00 0.000000000000e+00-2.002343535423e-08 2.600000000000e+01
    4.320000000000e+05 4.000000000000e+00
21 19  8 16  2  0  0.0-1.357118599117e-04 6.707523425575e-12 0.000000000000e+00
    3.200000000000e+01-1.806250000000e+01 5.182358723185e-09-9.499713036950e-01
   -6.221234798431e-07 2.450309460983e-02 1.909211277962e-06 5.153675338745e+03
    4.392000000000e+05-4.079192876816e-07 1.858281913061e+00 2.011656761169e-07
    9.492311900320e-01 3.442812500000e+02-1.421198660480e+00-9.049662669060e-09
    1.550064566411e-10 1.000000000000e+00 2.066000000000e+03 0.000000000000e+00
    2.400000000000e+00 0.000000000000e+00-1.024454832077e-08 3.200000000000e+01
    4.320000000000e+05 4.000000000000e+00
26 19  8 16  2  0  0.0 1.607695594430e-05 8.981260180008e-12 0.000000000000e+00
    3.000000000000e+01-6.093750000000e+00 4.485543983769e-09-1.329516242957e+00
   -2.495944499969e-07 3.801912185736e-03 1.111067831516e-05 5.153654859543e+03
    4.392000000000e+05-3.911554813385e-08-2.028031688460e-01-1.247972249985e-07
    9.507615793560e-01 1.621875000000e+02 1.388367188780e-01-7.889971506126e-09
   -5.503800683962e-10 1.000000000000e+00 2.066000000000e+03 0.000000000000e+00
    2.400000000000e+00 0.000000000000e+00 7.450580596924e-09 3.000000000000e+01
    4.320000000000e+05 4.000000000000e+00
18 19  8 16  2  0  0.0 7.819430902600e-05 2.955857780762e-12 0.000000000000e+00
    3.100000000000e+01-1.650000000000e+01 4.959492297047e-09 6.294312984772e-01
   -1.039355993271e-06 1.569011982065e-02 1.629814505577e-06 5.153677822113e+03
    4.392000000000e+05-1.657754182816e-07 1.867867064961e+00-6.705522537231e-08
    9.548882386537e-01 3.466875000000e+02 1.421541834729e+00-8.815367195428e-09
   -1.017899542459e-10 1.000000000000e+00 2.066000000000e+03 0.000000000000e+00
    2.400000000000e+00 0.000000000000e+00-5.587935447693e-09 3.100000000000e+01
    4.320000000000e+05 4.000000000000e+00
12 19  8 16  2  0  0.0 2.136742696166e-04-3.751665644813e-12 0.000000000000e+00
    2.500000000000e+01 2.112500000000e+01 3.848731743697e-09-4.352259844521e-01
    1.041218638420e-06 7.497499231249e-03 1.164525747299e-05 5.153601440430e+03
    4.392000000000e+05-2.421438694000e-08-1.075026345334e-01 7.636845111847e-08
    9.821738756900e-01 1.660625000000e+02 1.104406932262e+00-7.708535377154e-09
   -5.239503960657e-10 1.000000000000e+00 2.066000000000e+03 0.000000000000e+00
    2.400000000000e+00 0.000000000000e+00-1.257285475731e-08 2.500000000000e+01
    4.320000000000e+05 4.000000000000e+00
20 19  8 16  2  0  0.0 5.264766514301e-04 1.136868377216e-13 0.000000000000e+00
    1.900000000000e+01-1.216875000000e+02 5.018780480923e-09 5.102700802142e-01
   -6.314367055893e-06 4.701379104517e-03 8.549541234970e-06 5.153630258560e+03
    4.392000000000e+05 3.725290298462e-08 2.842448953191e+00-6.519258022308e-08
    9.317812866707e-01 1.995000000000e+02 2.411367064557e+00-8.392135280405e-09
   -1.253623647028e-10 1.000000000000e+00 2.066000000000e+03 0.000000000000e+00
    2.400000000000e+00 0.000000000000e+00-8.847564458847e-09 1.900000000000e+01
    4.320000000000e+05 4.000000000000e+00
16 19  8 16  2  0  0.0-6.535276770592e-05-3.296918293927e-12 0.000000000000e+00
    9.000000000000e+01 1.243750000000e+01 3.711226016032e-09-2.263198916439e+00
    6.519258022308e-07 1.075145835057e-02 1.160055398941e-05 5.153623899460e+03
    4.392000000000e+05 1.676380634308e-08-8.861277359199e-02-9.685754776001e-08
    9.825063311381e-01 1.668437500000e+02 5.809697744888e-01-7.416737508316e-09
   -3.625151002090e-10 1.000000000000e+00 2.066000000000e+03 0.000000000000e+00
    2.400000000000e+00 0.000000000000e+00-1.071020960808e-08 9.000000000000e+01
    4.320000000000e+05 4.000000000000e+00
24 19  8 16  2  0  0.0-8.475035429001e-07-5.684341886081e-13 0.000000000000e+00
    6.000000000000e+01-8.312500000000e+00 5.702380384175e-09 1.181959833051e+00
   -2.589076757431e-07 8.513786597177e-03 4.306435585022e-06 5.153696283340e+03
    4.392000000000e+05-1.117587089539e-08-1.276237993898e+00 1.471489667892e-07
    9.376516784875e-01 2.839375000000e+02 6.029126415944e-01-8.734649547499e-09
   -2.560820954186e-10 1.000000000000e+00 2.066000000000e+03 0.000000000000e+00
    3.400000000000e+00 0.000000000000e+00 2.793967723846e-09 6.000000000000e+01
    4.320000000000e+05 4.000000000000e+00
27 19  8 16  2  0  0.0-2.521369606256e-05-1.148237060988e-11 0.000000000000e+00
    9.400000000000e+01 1.106875000000e+02 3.889447725395e-09 3.065737829109e+00
    5.703419446945e-06 7.162797730416e-03 7.515773177147e-06 5.153651151657e+03
    4.392000000000e+05-2.421438694000e-08 8.688941249965e-01-6.332993507385e-08
    9.786280475349e-01 2.435312500000e+02 5.182979250976e-01-7.759251775410e-09
    3.264421690552e-10 1.000000000000e+00 2.066000000000e+03 0.000000000000e+00
    2.400000000000e+00 0.000000000000e+00 1.396983861923e-09 9.400000000000e+01
    4.320000000000e+05 4.000000000000e+00
